<?xml version='1.0' encoding='utf-8'?>
<q:quakeml xmlns="http://quakeml.org/xmlns/bed/1.2" xmlns:q="http://quakeml.org/xmlns/quakeml/1.2">
  <eventParameters publicID="smi:local/32bd0916-8fd1-4d20-962d-f17767b3a50b">
    <event publicID="smi:local/20160416184918">
      <preferredOriginID>smi:local/d8daa135-5094-40d2-b5b8-16a86460986a</preferredOriginID>
      <preferredMagnitudeID>smi:local/545da807-29e4-4b18-81aa-6eb1e98bc596</preferredMagnitudeID>
      <origin publicID="smi:local/d8daa135-5094-40d2-b5b8-16a86460986a">
        <time>
          <value>2016-04-16T18:49:18.000000Z</value>
        </time>
        <latitude>
          <value>36.653167</value>
        </latitude>
        <longitude>
          <value>-98.0928333</value>
        </longitude>
        <depth>
          <value>3390.0</value>
        </depth>
      </origin>
      <magnitude publicID="smi:local/545da807-29e4-4b18-81aa-6eb1e98bc596">
        <mag>
          <value>2.34850898371</value>
        </mag>
        <comment id="smi:local/6fa8d9ed-9565-473f-abaa-f88b79f8a3ca">
          <text>Magnitude USGS</text>
        </comment>
      </magnitude>
      <pick publicID="smi:local/ea6c93ab-1eca-4985-98af-5d8449ad2af9">
        <time>
          <value>2016-04-16T18:49:21.360000Z</value>
        </time>
        <waveformID networkCode="2A" stationCode="1" locationCode="" channelCode="DPZ"></waveformID>
        <phaseHint>P</phaseHint>
        <polarity>negative</polarity>
        <evaluationMode>automatic</evaluationMode>
        <comment id="smi:local/f951d293-49f7-4958-9993-e5fb1928aea9">
          <text>Pick generated with the &lt;built-in method upper of str object at 0x7ff7228660b0&gt; Picker</text>
        </comment>
        <comment id="smi:local/ab572eee-e6d9-43a8-bf36-b20279bdd03b">
          <text>SNR: 12.30</text>
        </comment>
        <comment id="smi:local/15a6a0d9-a737-44c1-9284-f9845efa0951">
          <text>Inside 2 std of linear fit</text>
        </comment>
      </pick>
      <pick publicID="smi:local/354949b1-10d4-4ba0-9bd0-106f5765ebdb">
        <time>
          <value>2016-04-16T18:49:21.300000Z</value>
        </time>
        <waveformID networkCode="2A" stationCode="100" locationCode="" channelCode="DPZ"></waveformID>
        <phaseHint>P</phaseHint>
        <polarity>positive</polarity>
        <evaluationMode>automatic</evaluationMode>
        <comment id="smi:local/3d9a983e-4cdc-4604-b8b1-94ac0f302cf1">
          <text>Pick generated with the &lt;built-in method upper of str object at 0x7ff7228660b0&gt; Picker</text>
        </comment>
        <comment id="smi:local/1aeab3ab-3422-4b4f-81cc-d7ba8b4c25f5">
          <text>SNR: 12.80</text>
        </comment>
        <comment id="smi:local/e87f830e-a69e-480a-90e0-ac44d2ce4156">
          <text>Inside 2 std of linear fit</text>
        </comment>
      </pick>
      <pick publicID="smi:local/8d81e1c8-0487-4f56-ad4d-a932d4ec8e45">
        <time>
          <value>2016-04-16T18:49:26.972000Z</value>
        </time>
        <waveformID networkCode="2A" stationCode="1004" locationCode="" channelCode="DPZ"></waveformID>
        <phaseHint>P</phaseHint>
        <polarity>positive</polarity>
        <evaluationMode>automatic</evaluationMode>
        <comment id="smi:local/e4717acb-b9d2-47fb-9b9d-2661e633da8a">
          <text>Pick generated with the &lt;built-in method upper of str object at 0x7ff7228660b0&gt; Picker</text>
        </comment>
        <comment id="smi:local/890cd863-6bb4-4009-a2ce-759da87fc8cb">
          <text>SNR: 10.60</text>
        </comment>
        <comment id="smi:local/932f2d97-3f8e-4eed-aca7-45392861c9d8">
          <text>Inside 2 std of linear fit</text>
        </comment>
      </pick>
      <pick publicID="smi:local/a1e4b98b-f9c6-47bd-ba59-0f898ec5f92e">
        <time>
          <value>2016-04-16T18:49:21.038000Z</value>
        </time>
        <waveformID networkCode="2A" stationCode="104" locationCode="" channelCode="DPZ"></waveformID>
        <phaseHint>P</phaseHint>
        <polarity>positive</polarity>
        <evaluationMode>automatic</evaluationMode>
        <comment id="smi:local/a5e90bbf-b0ed-4891-b6f9-8f3b3d40bd7e">
          <text>Pick generated with the &lt;built-in method upper of str object at 0x7ff7228660b0&gt; Picker</text>
        </comment>
        <comment id="smi:local/4309c691-076c-41ba-aca9-0e54cc3f0f98">
          <text>SNR: 10.20</text>
        </comment>
        <comment id="smi:local/9935ab8e-a5e2-43d2-a38b-da85ad76cf68">
          <text>Inside 2 std of linear fit</text>
        </comment>
      </pick>
      <pick publicID="smi:local/cb4d2003-52cc-470c-bbcd-1df01d6bae5e">
        <time>
          <value>2016-04-16T18:49:20.916000Z</value>
        </time>
        <waveformID networkCode="2A" stationCode="106" locationCode="" channelCode="DPZ"></waveformID>
        <phaseHint>P</phaseHint>
        <polarity>positive</polarity>
        <evaluationMode>automatic</evaluationMode>
        <comment id="smi:local/c0151172-1520-490c-9013-905d7136d6f4">
          <text>Pick generated with the &lt;built-in method upper of str object at 0x7ff7228660b0&gt; Picker</text>
        </comment>
        <comment id="smi:local/942bb03e-587e-4c49-b80b-7794c2e317de">
          <text>SNR: 14.30</text>
        </comment>
        <comment id="smi:local/4234a95b-34e3-4681-9e79-ea86ec5873a1">
          <text>Inside 2 std of linear fit</text>
        </comment>
      </pick>
      <pick publicID="smi:local/e13832f2-771e-4529-aecb-c6f321fd4e79">
        <time>
          <value>2016-04-16T18:49:26.496000Z</value>
        </time>
        <waveformID networkCode="2A" stationCode="1064" locationCode="" channelCode="DPZ"></waveformID>
        <phaseHint>P</phaseHint>
        <polarity>negative</polarity>
        <evaluationMode>automatic</evaluationMode>
        <comment id="smi:local/a3e906b0-b91a-4255-baab-8eec73eb70e3">
          <text>Pick generated with the &lt;built-in method upper of str object at 0x7ff7228660b0&gt; Picker</text>
        </comment>
        <comment id="smi:local/f098e900-f3a1-41ad-b27b-a2303461fb5c">
          <text>SNR: 14.70</text>
        </comment>
        <comment id="smi:local/a39a8b08-38ee-480c-a991-9b41d5d28986">
          <text>Inside 2 std of linear fit</text>
        </comment>
      </pick>
      <pick publicID="smi:local/e07d81c9-40c3-4877-828f-24c1736aee60">
        <time>
          <value>2016-04-16T18:49:20.854000Z</value>
        </time>
        <waveformID networkCode="2A" stationCode="107" locationCode="" channelCode="DPZ"></waveformID>
        <phaseHint>P</phaseHint>
        <polarity>positive</polarity>
        <evaluationMode>automatic</evaluationMode>
        <comment id="smi:local/85b3f3ed-1f53-46b6-861c-3e5f0e428138">
          <text>Pick generated with the &lt;built-in method upper of str object at 0x7ff7228660b0&gt; Picker</text>
        </comment>
        <comment id="smi:local/bcb1a38d-0f3c-4c2a-b6cb-cd0922ceec7c">
          <text>SNR: 16.10</text>
        </comment>
        <comment id="smi:local/7e05fad5-d00c-4f0e-8dfe-add4f49637a7">
          <text>Inside 2 std of linear fit</text>
        </comment>
      </pick>
      <pick publicID="smi:local/04dd2610-1a4f-477b-8f31-3cd007cf8bcd">
        <time>
          <value>2016-04-16T18:49:20.788000Z</value>
        </time>
        <waveformID networkCode="2A" stationCode="108" locationCode="" channelCode="DPZ"></waveformID>
        <phaseHint>P</phaseHint>
        <polarity>positive</polarity>
        <evaluationMode>automatic</evaluationMode>
        <comment id="smi:local/462bcde9-5626-4255-9ce4-d3333aa6ee1e">
          <text>Pick generated with the &lt;built-in method upper of str object at 0x7ff7228660b0&gt; Picker</text>
        </comment>
        <comment id="smi:local/6dde44c5-e95f-4809-820d-06b883a8b5c2">
          <text>SNR: 13.70</text>
        </comment>
        <comment id="smi:local/70b843e0-34b1-4dc6-953c-4d01a7a76703">
          <text>Inside 2 std of linear fit</text>
        </comment>
      </pick>
      <pick publicID="smi:local/d0ddf35d-14b7-4bfa-a594-dfdab6d51d1a">
        <time>
          <value>2016-04-16T18:49:20.720000Z</value>
        </time>
        <waveformID networkCode="2A" stationCode="109" locationCode="" channelCode="DPZ"></waveformID>
        <phaseHint>P</phaseHint>
        <polarity>positive</polarity>
        <evaluationMode>automatic</evaluationMode>
        <comment id="smi:local/48412d94-0598-4bc1-bf6c-f0641097c309">
          <text>Pick generated with the &lt;built-in method upper of str object at 0x7ff7228660b0&gt; Picker</text>
        </comment>
        <comment id="smi:local/7c700006-24dd-4e8e-9837-10499810443e">
          <text>SNR: 17.10</text>
        </comment>
        <comment id="smi:local/5f39c446-ea06-42b7-96b5-df41ecaea6d8">
          <text>Inside 2 std of linear fit</text>
        </comment>
      </pick>
      <pick publicID="smi:local/9928c457-3b1a-4a13-bb6e-e421d89c94ee">
        <time>
          <value>2016-04-16T18:49:25.490000Z</value>
        </time>
        <waveformID networkCode="2A" stationCode="1099" locationCode="" channelCode="DPZ"></waveformID>
        <phaseHint>P</phaseHint>
        <polarity>negative</polarity>
        <evaluationMode>automatic</evaluationMode>
        <comment id="smi:local/8e55a266-e8c3-4240-a101-063ac0d05f8e">
          <text>Pick generated with the &lt;built-in method upper of str object at 0x7ff7228660b0&gt; Picker</text>
        </comment>
        <comment id="smi:local/b5bd9b52-eb15-4bdf-bdab-9b2fe14634c4">
          <text>SNR: 11.10</text>
        </comment>
        <comment id="smi:local/c19f6823-11d0-4deb-9b4d-c92a6d71b961">
          <text>Inside 2 std of linear fit</text>
        </comment>
      </pick>
      <pick publicID="smi:local/6f5d996f-ab6c-4c5b-a04f-968819d25ed5">
        <time>
          <value>2016-04-16T18:49:20.280000Z</value>
        </time>
        <waveformID networkCode="2A" stationCode="11" locationCode="" channelCode="DPZ"></waveformID>
        <phaseHint>P</phaseHint>
        <polarity>positive</polarity>
        <evaluationMode>automatic</evaluationMode>
        <comment id="smi:local/eaa7c862-9ae4-434c-aa44-3ab3ba0dbacb">
          <text>Pick generated with the &lt;built-in method upper of str object at 0x7ff7228660b0&gt; Picker</text>
        </comment>
        <comment id="smi:local/712e394e-a253-4bba-a31b-a63ef09b7d17">
          <text>SNR: 24.60</text>
        </comment>
        <comment id="smi:local/b9b25f6f-d93b-466f-b3c8-a712b3c8b8ff">
          <text>Inside 2 std of linear fit</text>
        </comment>
      </pick>
      <pick publicID="smi:local/95a86bd2-5171-49d3-ab31-9fa19658ec1e">
        <time>
          <value>2016-04-16T18:49:20.664000Z</value>
        </time>
        <waveformID networkCode="2A" stationCode="110" locationCode="" channelCode="DPZ"></waveformID>
        <phaseHint>P</phaseHint>
        <polarity>positive</polarity>
        <evaluationMode>automatic</evaluationMode>
        <comment id="smi:local/d65d229f-33fc-440a-9178-96b45bef0acb">
          <text>Pick generated with the &lt;built-in method upper of str object at 0x7ff7228660b0&gt; Picker</text>
        </comment>
        <comment id="smi:local/9d584ba4-765e-4b8e-8516-54a89bba6a9f">
          <text>SNR: 11.60</text>
        </comment>
        <comment id="smi:local/1aff9bc6-0f30-4a87-8594-0cd57ef7cbbf">
          <text>Inside 2 std of linear fit</text>
        </comment>
      </pick>
      <pick publicID="smi:local/94afb67b-0a33-4c7c-9aff-d02e1cd28707">
        <time>
          <value>2016-04-16T18:49:25.626000Z</value>
        </time>
        <waveformID networkCode="2A" stationCode="1103" locationCode="" channelCode="DPZ"></waveformID>
        <phaseHint>P</phaseHint>
        <polarity>negative</polarity>
        <evaluationMode>automatic</evaluationMode>
        <comment id="smi:local/229a2bbf-fcd8-4e36-8e6f-7cf6a6d0ef37">
          <text>Pick generated with the &lt;built-in method upper of str object at 0x7ff7228660b0&gt; Picker</text>
        </comment>
        <comment id="smi:local/33df43ce-ae49-49f5-a0a2-612d2446e2ee">
          <text>SNR: 11.00</text>
        </comment>
        <comment id="smi:local/41d08239-948f-4390-8658-2f41c3d9a7b0">
          <text>Inside 2 std of linear fit</text>
        </comment>
      </pick>
      <pick publicID="smi:local/e05ef943-264a-41a6-bb5a-29d21ab3fd51">
        <time>
          <value>2016-04-16T18:49:25.294000Z</value>
        </time>
        <waveformID networkCode="2A" stationCode="1126" locationCode="" channelCode="DPZ"></waveformID>
        <phaseHint>P</phaseHint>
        <polarity>negative</polarity>
        <evaluationMode>automatic</evaluationMode>
        <comment id="smi:local/33ca7cce-4144-46de-9f3a-be961b1dea44">
          <text>Pick generated with the &lt;built-in method upper of str object at 0x7ff7228660b0&gt; Picker</text>
        </comment>
        <comment id="smi:local/da43d59c-be36-41e0-8ab4-b4d9c223a946">
          <text>SNR: 12.80</text>
        </comment>
        <comment id="smi:local/c9b46f96-6eeb-4296-ae17-6bf3238da6c4">
          <text>Inside 2 std of linear fit</text>
        </comment>
      </pick>
      <pick publicID="smi:local/9972f174-f6cb-40bb-9cfa-fc7690b9259d">
        <time>
          <value>2016-04-16T18:49:25.324000Z</value>
        </time>
        <waveformID networkCode="2A" stationCode="1127" locationCode="" channelCode="DPZ"></waveformID>
        <phaseHint>P</phaseHint>
        <polarity>negative</polarity>
        <evaluationMode>automatic</evaluationMode>
        <comment id="smi:local/d4e6019d-a6f0-4104-8c25-15a91d47c903">
          <text>Pick generated with the &lt;built-in method upper of str object at 0x7ff7228660b0&gt; Picker</text>
        </comment>
        <comment id="smi:local/6c3a827a-0304-4254-b093-b2441e75eb89">
          <text>SNR: 15.90</text>
        </comment>
        <comment id="smi:local/ca8cf441-16ab-4f44-bf7f-02d75244425e">
          <text>Inside 2 std of linear fit</text>
        </comment>
      </pick>
      <pick publicID="smi:local/80419aac-9297-405f-a6e7-664e6d9e0924">
        <time>
          <value>2016-04-16T18:49:20.478000Z</value>
        </time>
        <waveformID networkCode="2A" stationCode="113" locationCode="" channelCode="DPZ"></waveformID>
        <phaseHint>P</phaseHint>
        <polarity>positive</polarity>
        <evaluationMode>automatic</evaluationMode>
        <comment id="smi:local/2621271b-3eec-46b4-b006-46f07eec614f">
          <text>Pick generated with the &lt;built-in method upper of str object at 0x7ff7228660b0&gt; Picker</text>
        </comment>
        <comment id="smi:local/60113bca-996e-4bd5-a6f0-fd34e846f760">
          <text>SNR: 17.30</text>
        </comment>
        <comment id="smi:local/3074bf9b-a967-4a74-822f-6342df9a8de0">
          <text>Inside 2 std of linear fit</text>
        </comment>
      </pick>
      <pick publicID="smi:local/8e26ec18-cd0f-4ec2-a0fe-c7c95a3b3b2f">
        <time>
          <value>2016-04-16T18:49:25.526000Z</value>
        </time>
        <waveformID networkCode="2A" stationCode="1131" locationCode="" channelCode="DPZ"></waveformID>
        <phaseHint>P</phaseHint>
        <polarity>negative</polarity>
        <evaluationMode>automatic</evaluationMode>
        <comment id="smi:local/3afa47d5-8cfe-4faf-8ff2-8e9a4d2acb78">
          <text>Pick generated with the &lt;built-in method upper of str object at 0x7ff7228660b0&gt; Picker</text>
        </comment>
        <comment id="smi:local/61e93926-c0b8-4bbb-8ef4-bda73bb08a01">
          <text>SNR: 10.60</text>
        </comment>
        <comment id="smi:local/a48b8f11-16c1-4800-8564-af7e64e89a98">
          <text>Inside 2 std of linear fit</text>
        </comment>
      </pick>
      <pick publicID="smi:local/997ce8e2-6a73-4bf0-bd32-b122738fc3d8">
        <time>
          <value>2016-04-16T18:49:20.422000Z</value>
        </time>
        <waveformID networkCode="2A" stationCode="114" locationCode="" channelCode="DPZ"></waveformID>
        <phaseHint>P</phaseHint>
        <polarity>positive</polarity>
        <evaluationMode>automatic</evaluationMode>
        <comment id="smi:local/35af4395-c1bc-4da3-be9b-663cfa73f69d">
          <text>Pick generated with the &lt;built-in method upper of str object at 0x7ff7228660b0&gt; Picker</text>
        </comment>
        <comment id="smi:local/d87151b1-e670-4099-a60e-0c74c667fc08">
          <text>SNR: 13.40</text>
        </comment>
        <comment id="smi:local/5d54c351-eda9-4648-8664-9eff81ba7721">
          <text>Inside 2 std of linear fit</text>
        </comment>
      </pick>
      <pick publicID="smi:local/746691f7-22e0-4c9c-abea-9aaf8f0e0909">
        <time>
          <value>2016-04-16T18:49:20.362000Z</value>
        </time>
        <waveformID networkCode="2A" stationCode="115" locationCode="" channelCode="DPZ"></waveformID>
        <phaseHint>P</phaseHint>
        <polarity>positive</polarity>
        <evaluationMode>automatic</evaluationMode>
        <comment id="smi:local/cf790a60-a548-4757-8ed1-09faa8f5323e">
          <text>Pick generated with the &lt;built-in method upper of str object at 0x7ff7228660b0&gt; Picker</text>
        </comment>
        <comment id="smi:local/e7930b23-5e5c-43bb-883c-dd833a859c92">
          <text>SNR: 16.10</text>
        </comment>
        <comment id="smi:local/d4887d1c-1332-46fd-b83e-161e20804179">
          <text>Inside 2 std of linear fit</text>
        </comment>
      </pick>
      <pick publicID="smi:local/1f3de83d-c267-4da0-b50c-8aee06d2c4a2">
        <time>
          <value>2016-04-16T18:49:24.682000Z</value>
        </time>
        <waveformID networkCode="2A" stationCode="1150" locationCode="" channelCode="DPZ"></waveformID>
        <phaseHint>P</phaseHint>
        <polarity>positive</polarity>
        <evaluationMode>automatic</evaluationMode>
        <comment id="smi:local/19e718af-3bb9-4d88-afa1-aeb49cafe9a8">
          <text>Pick generated with the &lt;built-in method upper of str object at 0x7ff7228660b0&gt; Picker</text>
        </comment>
        <comment id="smi:local/f7b2ece0-5e18-44dc-8707-78e8d9d27009">
          <text>SNR: 12.60</text>
        </comment>
        <comment id="smi:local/44598f36-70e5-4592-8d08-5b928e4758fe">
          <text>Inside 2 std of linear fit</text>
        </comment>
      </pick>
      <pick publicID="smi:local/fd11c020-1882-439a-b1f3-a0cdcf5421bf">
        <time>
          <value>2016-04-16T18:49:25.058000Z</value>
        </time>
        <waveformID networkCode="2A" stationCode="1157" locationCode="" channelCode="DPZ"></waveformID>
        <phaseHint>P</phaseHint>
        <polarity>negative</polarity>
        <evaluationMode>automatic</evaluationMode>
        <comment id="smi:local/f984e157-f005-4723-a611-89cfcc650a0e">
          <text>Pick generated with the &lt;built-in method upper of str object at 0x7ff7228660b0&gt; Picker</text>
        </comment>
        <comment id="smi:local/65b56c1a-6584-4acb-ac28-bc18a4b25d51">
          <text>SNR: 12.50</text>
        </comment>
        <comment id="smi:local/08be4fc9-4404-466e-9cb8-4ab6bb079eb2">
          <text>Inside 2 std of linear fit</text>
        </comment>
      </pick>
      <pick publicID="smi:local/66eeb978-5b28-4d2f-a97f-542026a16b79">
        <time>
          <value>2016-04-16T18:49:25.180000Z</value>
        </time>
        <waveformID networkCode="2A" stationCode="1160" locationCode="" channelCode="DPZ"></waveformID>
        <phaseHint>P</phaseHint>
        <polarity>negative</polarity>
        <evaluationMode>automatic</evaluationMode>
        <comment id="smi:local/422b5493-3d23-4d8e-a350-a23fa2e9a44b">
          <text>Pick generated with the &lt;built-in method upper of str object at 0x7ff7228660b0&gt; Picker</text>
        </comment>
        <comment id="smi:local/7aa43260-6046-4557-901a-b7d4d52977e2">
          <text>SNR: 12.50</text>
        </comment>
